STARLINK-36569          
1 67553U 26014X   26046.83334490  .00063282  00000+0  42334-3 0  9990
2 67553  97.2851 290.7215 0001378  84.1375 332.8683 15.75116203  5170
STARLINK-36395          
1 67554U 26014Y   26046.58968556  .00461640  00000+0  29024-2 0  9999
2 67554  97.2852 290.4152 0002448  88.1938 271.9608 15.75423059  5087
STARLINK-36559          
1 67555U 26014Z   26046.65460170  .00094984  00000+0  62979-3 0  9997
2 67555  97.2854 290.4800 0001599  35.3890 324.7481 15.75220452  5096
MR-2                    
1 67556U 26015A   26046.66933708  .00000069  00000+0  86191-4 0  9996
2 67556  88.9968 280.9014 0005095  78.1893 281.9830 13.52686353  3284
MR-1                    
1 67557U 26015B   26046.74375104  .00000084  00000+0  10831-3 0  9990
2 67557  88.9969 280.8943 0005182  76.7421 283.4309 13.52661539  3292
ELECTRON R/B            
1 67558U 26015C   26046.44333559  .03401232 -12447-5  16869-2 0  9990
2 67558  88.9804 280.1892 0358247 180.8687 179.2008 15.54253284  3624
ELECTRON KICK STAGE R/B 
1 67559U 26015D   26046.70221887  .00057094  55497-7  96096-3 0  9994
2 67559  89.0507 280.5069 0528148 250.2823 104.0709 14.68296008  3562
STARLINK-36426          
1 67560U 26014AA  26046.83334490  .00020976  00000+0  14133-3 0  9997
2 67560  97.2841 290.7389 0001792 106.0564 344.8979 15.75160740  4000
STARLINK-36621          
1 67561U 26016A   26046.80965562  .00117697  00000+0  77735-3 0  9991
2 67561  97.2829 106.1352 0001344 136.8409 223.2962 15.75243039  3351
STARLINK-36398          
1 67562U 26016B   26046.81707558  .00138909  00000+0  91588-3 0  9993
2 67562  97.2835 106.1231 0001520 109.4992 250.6438 15.75220757  3358
STARLINK-36403          
1 67563U 26016C   26046.78865299  .00295942  00000+0  14847-2 0  9990
2 67563  97.2835 106.1646 0001444 120.3355 239.8057 15.80951350  3351
STARLINK-36593          
1 67564U 26016D   26046.72412994  .00259022  00000+0  13063-2 0  9993
2 67564  97.2837 106.0992 0001204  80.4473 279.6931 15.80933234  3341
