CCSDS_OMM_VERS = 2.0
CREATION_DATE  = 
ORIGINATOR     = 

OBJECT_NAME    = STARLINK-36569
OBJECT_ID      = 2026-014X
CENTER_NAME    = EARTH
REF_FRAME      = TEME
TIME_SYSTEM    = UTC
MEAN_ELEMENT_THEORY = SGP/SGP4

EPOCH          = 2026-02-15T20:00:00.999360
MEAN_MOTION    = 15.75116203
ECCENTRICITY   = .0001378
INCLINATION    = 97.2851
RA_OF_ASC_NODE = 290.7215
ARG_OF_PERICENTER = 84.1375
MEAN_ANOMALY   = 332.8683

EPHEMERIS_TYPE = 0
CLASSIFICATION_TYPE = U
NORAD_CAT_ID   = 67553
ELEMENT_SET_NO = 999
REV_AT_EPOCH   = 517
BSTAR          = .42334E-3
MEAN_MOTION_DOT = .63282E-3
MEAN_MOTION_DDOT = 0

CCSDS_OMM_VERS = 2.0
CREATION_DATE  = 
ORIGINATOR     = 

OBJECT_NAME    = STARLINK-36395
OBJECT_ID      = 2026-014Y
CENTER_NAME    = EARTH
REF_FRAME      = TEME
TIME_SYSTEM    = UTC
MEAN_ELEMENT_THEORY = SGP/SGP4

EPOCH          = 2026-02-15T14:09:08.832384
MEAN_MOTION    = 15.75423059
ECCENTRICITY   = .0002448
INCLINATION    = 97.2852
RA_OF_ASC_NODE = 290.4152
ARG_OF_PERICENTER = 88.1938
MEAN_ANOMALY   = 271.9608

EPHEMERIS_TYPE = 0
CLASSIFICATION_TYPE = U
NORAD_CAT_ID   = 67554
ELEMENT_SET_NO = 999
REV_AT_EPOCH   = 508
BSTAR          = .29024E-2
MEAN_MOTION_DOT = .46164E-2
MEAN_MOTION_DDOT = 0

CCSDS_OMM_VERS = 2.0
CREATION_DATE  = 
ORIGINATOR     = 

OBJECT_NAME    = STARLINK-36559
OBJECT_ID      = 2026-014Z
CENTER_NAME    = EARTH
REF_FRAME      = TEME
TIME_SYSTEM    = UTC
MEAN_ELEMENT_THEORY = SGP/SGP4

EPOCH          = 2026-02-15T15:42:37.586880
MEAN_MOTION    = 15.75220452
ECCENTRICITY   = .0001599
INCLINATION    = 97.2854
RA_OF_ASC_NODE = 290.4800
ARG_OF_PERICENTER = 35.3890
MEAN_ANOMALY   = 324.7481

EPHEMERIS_TYPE = 0
CLASSIFICATION_TYPE = U
NORAD_CAT_ID   = 67555
ELEMENT_SET_NO = 999
REV_AT_EPOCH   = 509
BSTAR          = .62979E-3
MEAN_MOTION_DOT = .94984E-3
MEAN_MOTION_DDOT = 0

CCSDS_OMM_VERS = 2.0
CREATION_DATE  = 
ORIGINATOR     = 

OBJECT_NAME    = MR-2
OBJECT_ID      = 2026-015A
CENTER_NAME    = EARTH
REF_FRAME      = TEME
TIME_SYSTEM    = UTC
MEAN_ELEMENT_THEORY = SGP/SGP4

EPOCH          = 2026-02-15T16:03:50.723712
MEAN_MOTION    = 13.52686353
ECCENTRICITY   = .0005095
INCLINATION    = 88.9968
RA_OF_ASC_NODE = 280.9014
ARG_OF_PERICENTER = 78.1893
MEAN_ANOMALY   = 281.9830

EPHEMERIS_TYPE = 0
CLASSIFICATION_TYPE = U
NORAD_CAT_ID   = 67556
ELEMENT_SET_NO = 999
REV_AT_EPOCH   = 328
BSTAR          = .86191E-4
MEAN_MOTION_DOT = .69E-6
MEAN_MOTION_DDOT = 0

CCSDS_OMM_VERS = 2.0
CREATION_DATE  = 
ORIGINATOR     = 

OBJECT_NAME    = MR-1
OBJECT_ID      = 2026-015B
CENTER_NAME    = EARTH
REF_FRAME      = TEME
TIME_SYSTEM    = UTC
MEAN_ELEMENT_THEORY = SGP/SGP4

EPOCH          = 2026-02-15T17:51:00.089856
MEAN_MOTION    = 13.52661539
ECCENTRICITY   = .0005182
INCLINATION    = 88.9969
RA_OF_ASC_NODE = 280.8943
ARG_OF_PERICENTER = 76.7421
MEAN_ANOMALY   = 283.4309

EPHEMERIS_TYPE = 0
CLASSIFICATION_TYPE = U
NORAD_CAT_ID   = 67557
ELEMENT_SET_NO = 999
REV_AT_EPOCH   = 329
BSTAR          = .10831E-3
MEAN_MOTION_DOT = .84E-6
MEAN_MOTION_DDOT = 0

CCSDS_OMM_VERS = 2.0
CREATION_DATE  = 
ORIGINATOR     = 

OBJECT_NAME    = ELECTRON R/B
OBJECT_ID      = 2026-015C
CENTER_NAME    = EARTH
REF_FRAME      = TEME
TIME_SYSTEM    = UTC
MEAN_ELEMENT_THEORY = SGP/SGP4

EPOCH          = 2026-02-15T10:38:24.194976
MEAN_MOTION    = 15.54253284
ECCENTRICITY   = .03582477
INCLINATION    = 88.9804
RA_OF_ASC_NODE = 280.1892
ARG_OF_PERICENTER = 180.8687
MEAN_ANOMALY   = 179.2008

EPHEMERIS_TYPE = 0
CLASSIFICATION_TYPE = U
NORAD_CAT_ID   = 67558
ELEMENT_SET_NO = 999
REV_AT_EPOCH   = 362
BSTAR          = .16868804E-2
MEAN_MOTION_DOT = .3401232E-1
MEAN_MOTION_DDOT = -.1244715E-5

CCSDS_OMM_VERS = 2.0
CREATION_DATE  = 
ORIGINATOR     = 

OBJECT_NAME    = ELECTRON KICK STAGE R/B
OBJECT_ID      = 2026-015D
CENTER_NAME    = EARTH
REF_FRAME      = TEME
TIME_SYSTEM    = UTC
MEAN_ELEMENT_THEORY = SGP/SGP4

EPOCH          = 2026-02-15T16:51:11.710368
MEAN_MOTION    = 14.68296008
ECCENTRICITY   = .0528148
INCLINATION    = 89.0507
RA_OF_ASC_NODE = 280.5069
ARG_OF_PERICENTER = 250.2823
MEAN_ANOMALY   = 104.0709

EPHEMERIS_TYPE = 0
CLASSIFICATION_TYPE = U
NORAD_CAT_ID   = 67559
ELEMENT_SET_NO = 999
REV_AT_EPOCH   = 356
BSTAR          = .96096E-3
MEAN_MOTION_DOT = .57094E-3
MEAN_MOTION_DDOT = .55497E-7

CCSDS_OMM_VERS = 2.0
CREATION_DATE  = 
ORIGINATOR     = 

OBJECT_NAME    = STARLINK-36426
OBJECT_ID      = 2026-014AA
CENTER_NAME    = EARTH
REF_FRAME      = TEME
TIME_SYSTEM    = UTC
MEAN_ELEMENT_THEORY = SGP/SGP4

EPOCH          = 2026-02-15T20:00:00.999360
MEAN_MOTION    = 15.75160740
ECCENTRICITY   = .0001792
INCLINATION    = 97.2841
RA_OF_ASC_NODE = 290.7389
ARG_OF_PERICENTER = 106.0564
MEAN_ANOMALY   = 344.8979

EPHEMERIS_TYPE = 0
CLASSIFICATION_TYPE = U
NORAD_CAT_ID   = 67560
ELEMENT_SET_NO = 999
REV_AT_EPOCH   = 400
BSTAR          = .14133E-3
MEAN_MOTION_DOT = .20976E-3
MEAN_MOTION_DDOT = 0

CCSDS_OMM_VERS = 2.0
CREATION_DATE  = 
ORIGINATOR     = 

OBJECT_NAME    = STARLINK-36621
OBJECT_ID      = 2026-016A
CENTER_NAME    = EARTH
REF_FRAME      = TEME
TIME_SYSTEM    = UTC
MEAN_ELEMENT_THEORY = SGP/SGP4

EPOCH          = 2026-02-15T19:25:54.245568
MEAN_MOTION    = 15.75243039
ECCENTRICITY   = .0001344
INCLINATION    = 97.2829
RA_OF_ASC_NODE = 106.1352
ARG_OF_PERICENTER = 136.8409
MEAN_ANOMALY   = 223.2962

EPHEMERIS_TYPE = 0
CLASSIFICATION_TYPE = U
NORAD_CAT_ID   = 67561
ELEMENT_SET_NO = 999
REV_AT_EPOCH   = 335
BSTAR          = .77735E-3
MEAN_MOTION_DOT = .117697E-2
MEAN_MOTION_DDOT = 0

CCSDS_OMM_VERS = 2.0
CREATION_DATE  = 
ORIGINATOR     = 

OBJECT_NAME    = STARLINK-36398
OBJECT_ID      = 2026-016B
CENTER_NAME    = EARTH
REF_FRAME      = TEME
TIME_SYSTEM    = UTC
MEAN_ELEMENT_THEORY = SGP/SGP4

EPOCH          = 2026-02-15T19:36:35.330112
MEAN_MOTION    = 15.75220757
ECCENTRICITY   = .000152
INCLINATION    = 97.2835
RA_OF_ASC_NODE = 106.1231
ARG_OF_PERICENTER = 109.4992
MEAN_ANOMALY   = 250.6438

EPHEMERIS_TYPE = 0
CLASSIFICATION_TYPE = U
NORAD_CAT_ID   = 67562
ELEMENT_SET_NO = 999
REV_AT_EPOCH   = 335
BSTAR          = .91588E-3
MEAN_MOTION_DOT = .138909E-2
MEAN_MOTION_DDOT = 0

CCSDS_OMM_VERS = 2.0
CREATION_DATE  = 
ORIGINATOR     = 

OBJECT_NAME    = STARLINK-36403
OBJECT_ID      = 2026-016C
CENTER_NAME    = EARTH
REF_FRAME      = TEME
TIME_SYSTEM    = UTC
MEAN_ELEMENT_THEORY = SGP/SGP4

EPOCH          = 2026-02-15T18:55:39.618336
MEAN_MOTION    = 15.80951350
ECCENTRICITY   = .0001444
INCLINATION    = 97.2835
RA_OF_ASC_NODE = 106.1646
ARG_OF_PERICENTER = 120.3355
MEAN_ANOMALY   = 239.8057

EPHEMERIS_TYPE = 0
CLASSIFICATION_TYPE = U
NORAD_CAT_ID   = 67563
ELEMENT_SET_NO = 999
REV_AT_EPOCH   = 335
BSTAR          = .14847E-2
MEAN_MOTION_DOT = .295942E-2
MEAN_MOTION_DDOT = 0

CCSDS_OMM_VERS = 2.0
CREATION_DATE  = 
ORIGINATOR     = 

OBJECT_NAME    = STARLINK-36593
OBJECT_ID      = 2026-016D
CENTER_NAME    = EARTH
REF_FRAME      = TEME
TIME_SYSTEM    = UTC
MEAN_ELEMENT_THEORY = SGP/SGP4

EPOCH          = 2026-02-15T17:22:44.826816
MEAN_MOTION    = 15.80933234
ECCENTRICITY   = .0001204
INCLINATION    = 97.2837
RA_OF_ASC_NODE = 106.0992
ARG_OF_PERICENTER = 80.4473
MEAN_ANOMALY   = 279.6931

EPHEMERIS_TYPE = 0
CLASSIFICATION_TYPE = U
NORAD_CAT_ID   = 67564
ELEMENT_SET_NO = 999
REV_AT_EPOCH   = 334
BSTAR          = .13063E-2
MEAN_MOTION_DOT = .259022E-2
MEAN_MOTION_DDOT = 0

